NORAD_CAT_ID,OBJECT_NAME,OBJECT_TYPE,EPOCH,MEAN_MOTION,ECCENTRICITY,INCLINATION,RA_OF_ASC_NODE,ARG_OF_PERICENTER,MEAN_ANOMALY,BSTAR,MEAN_MOTION_DOT,MEAN_MOTION_DDOT,TLE_LINE0,TLE_LINE1,TLE_LINE2,SEMIMAJOR_AXIS,PERIOD,APOGEE,PERIGEE,DECAYED
52093.0,STARLINK-3673,PAYLOAD,2023-08-16 18:26:18,15.08841105,0.0001176,53.2176,330.6469,97.3025,262.81,5.7766e-05,6.32e-06,0.0,0 STARLINK-3673,1 52093U 22029F   23228.76827417  .00000632  00000-0  57766-4 0  9999,2 52093  53.2176 330.6469 0001176  97.3025 262.8100 15.08841105 79364,6917.877,95.437,540.556,538.928,0.0
52093.0,STARLINK-3673,PAYLOAD,2023-08-17 10:20:09,15.08850113,0.0001128,53.218,327.6729,94.0101,266.102,0.00022204,3.249e-05,0.0,0 STARLINK-3673,1 52093U 22029F   23229.43066899  .00003249  00000-0  22204-3 0  9998,2 52093  53.2180 327.6729 0001128  94.0101 266.1020 15.08850113 79468,6917.849,95.437,540.495,538.934,0.0
52093.0,STARLINK-3673,PAYLOAD,2023-08-17 23:03:15,15.08830471,9.4e-05,53.2178,325.2957,127.3376,232.7702,-0.00018953,-3.302e-05,0.0,0 STARLINK-3673,1 52093U 22029F   23229.96059266 -.00003302  00000-0 -18953-3 0  9994,2 52093  53.2178 325.2957 0000940 127.3376 232.7702 15.08830471 79547,6917.91,95.438,540.425,539.124,0.0
52093.0,STARLINK-3673,PAYLOAD,2023-08-18 10:10:57,15.08837474,0.0001077,53.2175,323.2141,96.9642,263.1473,1.4439e-05,-5.8e-07,0.0,0 STARLINK-3673,1 52093U 22029F   23230.42427278 -.00000058  00000-0  14439-4 0  9999,2 52093  53.2175 323.2141 0001077  96.9642 263.1473 15.08837474 79617,6917.888,95.438,540.498,539.008,0.0
52093.0,STARLINK-3673,PAYLOAD,2023-08-18 14:57:06,15.08839688,0.0001743,53.2185,322.3244,111.7789,248.3389,0.00027387,4.073e-05,0.0,0 STARLINK-3673,1 52093U 22029F   23230.62298929  .00004073  00000-0  27387-3 0  9995,2 52093  53.2185 322.3244 0001743 111.7789 248.3389 15.08839688 79643,6917.881,95.438,540.952,538.541,0.0
52093.0,STARLINK-3673,PAYLOAD,2023-08-19 10:01:44,15.08837534,0.000117,53.2171,318.7547,96.8727,263.2398,0.0002461,3.631e-05,0.0,0 STARLINK-3673,1 52093U 22029F   23231.41787395  .00003631  00000-0  24610-3 0  9998,2 52093  53.2171 318.7547 0001170  96.8727 263.2398 15.08837534 79769,6917.888,95.438,540.562,538.944,0.0
52093.0,STARLINK-3673,PAYLOAD,2023-08-20 11:27:56,15.08796369,0.0001501,53.2173,313.9975,69.6745,290.4408,-0.00061763,-0.00010092,0.0,0 STARLINK-3673,1 52093U 22029F   23232.47773642 -.00010092  00000-0 -61763-3 0  9996,2 52093  53.2173 313.9975 0001501  69.6745 290.4408 15.08796369 79921,6918.014,95.44,540.917,538.84,0.0
52093.0,STARLINK-3673,PAYLOAD,2023-08-20 17:49:29,15.08800969,0.0001342,53.2171,312.8076,87.8283,272.2863,-0.00044226,-7.312e-05,0.0,0 STARLINK-3673,1 52093U 22029F   23232.74270018 -.00007312  00000-0 -44226-3 0  9991,2 52093  53.2171 312.8076 0001342  87.8283 272.2863 15.08800969 79960,6918.0,95.44,540.793,538.936,0.0
52093.0,STARLINK-3673,PAYLOAD,2023-08-20 22:35:37,15.08833172,6.22e-05,53.2168,311.9168,121.693,238.4123,0.00021442,3.126e-05,0.0,0 STARLINK-3673,1 52093U 22029F   23232.94140886  .00003126  00000-0  21442-3 0  9994,2 52093  53.2168 311.9168 0000622 121.6930 238.4123 15.08833172 79992,6917.901,95.438,540.197,539.336,0.0
52093.0,STARLINK-3673,PAYLOAD,2023-08-22 04:47:57,15.0885059,0.0001365,53.2156,306.2652,84.0286,276.0862,0.00078943,0.00012302,0.0,0 STARLINK-3673,1 52093U 22029F   23234.19997077  .00012302  00000-0  78943-3 0  9999,2 52093  53.2156 306.2652 0001365  84.0286 276.0862 15.08850590 80189,6917.848,95.437,540.657,538.769,0.0
52093.0,STARLINK-3673,PAYLOAD,2023-08-22 15:55:38,15.08875559,0.0001353,53.2153,304.1834,89.6254,270.4893,0.00069194,0.00010752,0.0,0 STARLINK-3673,1 52093U 22029F   23234.66363642  .00010752  00000-0  69194-3 0  9991,2 52093  53.2153 304.1834 0001353  89.6254 270.4893 15.08875559 80250,6917.772,95.435,540.573,538.701,0.0
52093.0,STARLINK-3673,PAYLOAD,2023-08-23 11:00:16,15.08842415,0.0001371,53.2161,300.6159,87.4468,272.6681,-0.00016422,-2.901e-05,0.0,0 STARLINK-3673,1 52093U 22029F   23235.45852081 -.00002901  00000-0 -16422-3 0  9994,2 52093  53.2161 300.6159 0001371  87.4468 272.6681 15.08842415 80370,6917.873,95.437,540.686,538.79,0.0
52093.0,STARLINK-3673,PAYLOAD,2023-08-24 15:37:12,15.08854464,0.0001453,53.2166,295.2603,85.1461,274.9697,0.00057683,8.908e-05,0.0,0 STARLINK-3673,1 52093U 22029F   23236.65083834  .00008908  00000-0  57683-3 0  9994,2 52093  53.2166 295.2603 0001453  85.1461 274.9697 15.08854464 80556,6917.836,95.437,540.706,538.696,0.0
52093.0,STARLINK-3673,PAYLOAD,2023-08-25 09:06:26,15.08849094,0.000142,53.2161,291.9903,79.668,280.4473,0.00029872,4.471e-05,0.0,0 STARLINK-3673,1 52093U 22029F   23237.37947894  .00004471  00000-0  29872-3 0  9999,2 52093  53.2161 291.9903 0001420  79.6680 280.4473 15.08849094 80661,6917.853,95.437,540.7,538.735,0.0
52093.0,STARLINK-3673,PAYLOAD,2023-08-25 13:52:36,15.08851276,0.0001428,53.2162,291.0985,76.1875,283.9276,0.00036236,5.485e-05,0.0,0 STARLINK-3673,1 52093U 22029F   23237.57819795  .00005485  00000-0  36236-3 0  9997,2 52093  53.2162 291.0985 0001428  76.1875 283.9276 15.08851276 80696,6917.846,95.437,540.699,538.723,0.0
52093.0,STARLINK-3673,PAYLOAD,2023-08-26 08:57:14,15.08835972,0.000153,53.2174,287.5328,87.582,272.5348,1.1054e-05,-1.12e-06,0.0,0 STARLINK-3673,1 52093U 22029F   23238.37308269 -.00000112  00000-0  11054-4 0  9990,2 52093  53.2174 287.5328 0001530  87.5820 272.5348 15.08835972 80813,6917.893,95.438,540.816,538.699,0.0
52093.0,STARLINK-3673,PAYLOAD,2023-08-26 12:08:00,15.08842095,0.000147,53.2163,286.9366,84.4296,275.6863,7.8447e-05,9.61e-06,0.0,0 STARLINK-3673,1 52093U 22029F   23238.50556112  .00000961  00000-0  78447-4 0  9997,2 52093  53.2163 286.9366 0001470  84.4296 275.6863 15.08842095 80834,6917.874,95.437,540.756,538.722,0.0
52093.0,STARLINK-3673,PAYLOAD,2023-08-27 08:48:01,15.08841833,0.0001422,53.2159,283.0711,86.9743,273.1412,0.00014592,2.035e-05,0.0,0 STARLINK-3673,1 52093U 22029F   23239.36668296  .00002035  00000-0  14592-3 0  9993,2 52093  53.2159 283.0711 0001422  86.9743 273.1412 15.08841833 80968,6917.875,95.437,540.724,538.756,0.0
52093.0,STARLINK-3673,PAYLOAD,2023-08-27 11:58:47,15.08844856,0.0001421,53.2157,282.476,88.3126,271.8029,0.00021344,3.111e-05,0.0,0 STARLINK-3673,1 52093U 22029F   23239.49916190  .00003111  00000-0  21344-3 0  9995,2 52093  53.2157 282.4760 0001421  88.3126 271.8029 15.08844856 80982,6917.866,95.437,540.714,538.748,0.0
52093.0,STARLINK-3673,PAYLOAD,2023-08-28 02:17:16,15.08838684,0.0001542,53.2156,279.8001,88.542,271.5748,0.00011365,1.521e-05,0.0,0 STARLINK-3673,1 52093U 22029F   23240.09532535  .00001521  00000-0  11365-3 0  9995,2 52093  53.2156 279.8001 0001542  88.5420 271.5748 15.08838684 81070,6917.884,95.438,540.816,538.683,0.0
52093.0,STARLINK-3673,PAYLOAD,2023-08-28 19:46:30,15.08838976,0.0001504,53.2152,276.5284,82.4741,277.6422,5.5578e-05,5.97e-06,0.0,0 STARLINK-3673,1 52093U 22029F   23240.82396711  .00000597  00000-0  55578-4 0  9997,2 52093  53.2152 276.5284 0001504  82.4741 277.6422 15.08838976 81182,6917.884,95.438,540.789,538.708,0.0
52093.0,STARLINK-3673,PAYLOAD,2023-08-29 10:04:58,15.08842331,0.0001464,53.2159,273.8513,85.7333,274.3826,8.2079e-05,1.019e-05,0.0,0 STARLINK-3673,1 52093U 22029F   23241.42012690  .00001019  00000-0  82079-4 0  9991,2 52093  53.2159 273.8513 0001464  85.7333 274.3826 15.08842331 81274,6917.873,95.437,540.751,538.725,0.0
52093.0,STARLINK-3673,PAYLOAD,2023-08-29 11:40:21,15.08843924,0.0001469,53.2159,273.5539,85.4964,274.6195,9.2643e-05,1.187e-05,0.0,0 STARLINK-3673,1 52093U 22029F   23241.48636561  .00001187  00000-0  92643-4 0  9990,2 52093  53.2159 273.5539 0001469  85.4964 274.6195 15.08843924 81283,6917.868,95.437,540.75,538.717,0.0
52093.0,STARLINK-3673,PAYLOAD,2023-08-30 13:06:32,15.08843524,0.0001062,53.2165,268.796,89.6548,270.4566,0.00010547,1.391e-05,0.0,0 STARLINK-3673,1 52093U 22029F   23242.54620382  .00001391  00000-0  10547-3 0  9991,2 52093  53.2165 268.7960 0001062  89.6548 270.4566 15.08843524 81447,6917.87,95.437,540.469,539.0,0.0
52093.0,STARLINK-3673,PAYLOAD,2023-08-30 19:28:05,15.0883949,0.0001596,53.2156,267.6075,81.5294,278.5879,5.1625e-05,5.34e-06,0.0,0 STARLINK-3673,1 52093U 22029F   23242.81116972  .00000534  00000-0  51625-4 0  9997,2 52093  53.2156 267.6075 0001596  81.5294 278.5879 15.08839490 81480,6917.882,95.438,540.851,538.643,0.0
52093.0,STARLINK-3673,PAYLOAD,2023-08-31 01:49:37,15.08839243,0.000138,53.2158,266.4168,86.9593,273.1557,7.5588e-05,9.15e-06,0.0,0 STARLINK-3673,1 52093U 22029F   23243.07612818  .00000915  00000-0  75588-4 0  9993,2 52093  53.2158 266.4168 0001380  86.9593 273.1557 15.08839243 81529,6917.883,95.438,540.702,538.793,0.0
52093.0,STARLINK-3673,PAYLOAD,2023-08-31 12:57:19,15.0884558,0.0001465,53.2157,264.3354,84.2388,275.8771,9.2541e-05,1.185e-05,0.0,0 STARLINK-3673,1 52093U 22029F   23243.53980372  .00001185  00000-0  92541-4 0  9995,2 52093  53.2157 264.3354 0001465  84.2388 275.8771 15.08845580 81594,6917.863,95.437,540.742,538.715,0.0
52093.0,STARLINK-3673,PAYLOAD,2023-09-01 08:01:57,15.08837969,0.0001869,53.2133,260.7667,96.6601,263.4603,8.8768e-05,1.125e-05,0.0,0 STARLINK-3673,1 52093U 22029F   23244.33468798  .00001125  00000-0  88768-4 0  9997,2 52093  53.2133 260.7667 0001869  96.6601 263.4603 15.08837969 81711,6917.887,95.438,541.045,538.459,0.0
52093.0,STARLINK-3673,PAYLOAD,2023-09-01 12:48:06,15.0883705,0.000167,53.2127,259.8757,97.341,262.7772,6.3552e-05,7.23e-06,0.0,0 STARLINK-3673,1 52093U 22029F   23244.53340952  .00000723  00000-0  63552-4 0  9997,2 52093  53.2127 259.8757 0001670  97.3410 262.7772 15.08837050 81742,6917.889,95.438,540.91,538.599,0.0
52093.0,STARLINK-3673,PAYLOAD,2023-09-01 17:34:16,15.08836505,0.000168,53.2128,258.9834,97.1221,262.9962,5.3262e-05,5.6e-06,0.0,0 STARLINK-3673,1 52093U 22029F   23244.73213041  .00000560  00000-0  53262-4 0  9993,2 52093  53.2128 258.9834 0001680  97.1221 262.9962 15.08836505 81778,6917.891,95.438,540.918,538.594,0.0
